[
  {
    "COMMENT": "GENERATED VIA SPACETRACK.ORG API",
    "ORIGINATOR": "18 SPCS",
    "NORAD_CAT_ID": "20436",
    "OBJECT_NAME": "SPOT 2",
    "OBJECT_TYPE": "PAYLOAD",
    "CLASSIFICATION_TYPE": "U",
    "INTLDES": "90005A",
    "EPOCH": "2023-05-01 22:02:05",
    "EPOCH_MICROSECONDS": "769312",
    "MEAN_MOTION": "14.67981961",
    "ECCENTRICITY": "0.0142718",
    "INCLINATION": "98.665",
    "RA_OF_ASC_NODE": "190.5062",
    "ARG_OF_PERICENTER": "68.3133",
    "MEAN_ANOMALY": "293.3198",
    "EPHEMERIS_TYPE": "0",
    "ELEMENT_SET_NO": "999",
    "REV_AT_EPOCH": "74740",
    "BSTAR": "0.00025256",
    "MEAN_MOTION_DOT": "0.00001625",
    "MEAN_MOTION_DDOT": "0",
    "FILE": "3898462",
    "TLE_LINE0": "0 SPOT 2",
    "TLE_LINE1": "1 20436U 90005A   23121.91812233  .00001625  00000-0  25256-3 0  9994",
    "TLE_LINE2": "2 20436  98.6650 190.5062 0142718  68.3133 293.3198 14.67981961747400",
    "OBJECT_ID": "1990-005A",
    "OBJECT_NUMBER": "20436",
    "SEMIMAJOR_AXIS": "7045.655",
    "PERIOD": "98.094",
    "APOGEE": "768.074",
    "PERIGEE": "566.966",
    "DECAYED": "0"
  },
  {
    "COMMENT": "GENERATED VIA SPACETRACK.ORG API",
    "ORIGINATOR": "18 SPCS",
    "NORAD_CAT_ID": "20436",
    "OBJECT_NAME": "SPOT 2",
    "OBJECT_TYPE": "PAYLOAD",
    "CLASSIFICATION_TYPE": "U",
    "INTLDES": "90005A",
    "EPOCH": "2023-05-02 04:34:41",
    "EPOCH_MICROSECONDS": "993184",
    "MEAN_MOTION": "14.67983739",
    "ECCENTRICITY": "0.0142695",
    "INCLINATION": "98.6649",
    "RA_OF_ASC_NODE": "190.7947",
    "ARG_OF_PERICENTER": "67.4668",
    "MEAN_ANOMALY": "294.1567",
    "EPHEMERIS_TYPE": "0",
    "ELEMENT_SET_NO": "999",
    "REV_AT_EPOCH": "74742",
    "BSTAR": "0.00027464",
    "MEAN_MOTION_DOT": "0.00001773",
    "MEAN_MOTION_DDOT": "0",
    "FILE": "3899068",
    "TLE_LINE0": "0 SPOT 2",
    "TLE_LINE1": "1 20436U 90005A   23122.19076381  .00001773  00000-0  27464-3 0  9998",
    "TLE_LINE2": "2 20436  98.6649 190.7947 0142695  67.4668 294.1567 14.67983739747425",
    "OBJECT_ID": "1990-005A",
    "OBJECT_NUMBER": "20436",
    "SEMIMAJOR_AXIS": "7045.649",
    "PERIOD": "98.094",
    "APOGEE": "768.052",
    "PERIGEE": "566.976",
    "DECAYED": "0"
  },
  {
    "COMMENT": "GENERATED VIA SPACETRACK.ORG API",
    "ORIGINATOR": "18 SPCS",
    "NORAD_CAT_ID": "20436",
    "OBJECT_NAME": "SPOT 2",
    "OBJECT_TYPE": "PAYLOAD",
    "CLASSIFICATION_TYPE": "U",
    "INTLDES": "90005A",
    "EPOCH": "2023-05-02 17:39:54",
    "EPOCH_MICROSECONDS": "425376",
    "MEAN_MOTION": "14.67986039",
    "ECCENTRICITY": "0.0142685",
    "INCLINATION": "98.6649",
    "RA_OF_ASC_NODE": "191.3718",
    "ARG_OF_PERICENTER": "65.7959",
    "MEAN_ANOMALY": "295.8081",
    "EPHEMERIS_TYPE": "0",
    "ELEMENT_SET_NO": "999",
    "REV_AT_EPOCH": "74750",
    "BSTAR": "0.00027924",
    "MEAN_MOTION_DOT": "0.00001804",
    "MEAN_MOTION_DDOT": "0",
    "FILE": "3899277",
    "TLE_LINE0": "0 SPOT 2",
    "TLE_LINE1": "1 20436U 90005A   23122.73604659  .00001804  00000-0  27924-3 0  9999",
    "TLE_LINE2": "2 20436  98.6649 191.3718 0142685  65.7959 295.8081 14.67986039747505",
    "OBJECT_ID": "1990-005A",
    "OBJECT_NUMBER": "20436",
    "SEMIMAJOR_AXIS": "7045.642",
    "PERIOD": "98.094",
    "APOGEE": "768.038",
    "PERIGEE": "566.976",
    "DECAYED": "0"
  },
  {
    "COMMENT": "GENERATED VIA SPACETRACK.ORG API",
    "ORIGINATOR": "18 SPCS",
    "NORAD_CAT_ID": "20436",
    "OBJECT_NAME": "SPOT 2",
    "OBJECT_TYPE": "PAYLOAD",
    "CLASSIFICATION_TYPE": "U",
    "INTLDES": "90005A",
    "EPOCH": "2023-05-03 03:28:48",
    "EPOCH_MICROSECONDS": "693792",
    "MEAN_MOTION": "14.67986985",
    "ECCENTRICITY": "0.0142671",
    "INCLINATION": "98.6648",
    "RA_OF_ASC_NODE": "191.8048",
    "ARG_OF_PERICENTER": "64.526",
    "MEAN_ANOMALY": "297.0624",
    "EPHEMERIS_TYPE": "0",
    "ELEMENT_SET_NO": "999",
    "REV_AT_EPOCH": "74758",
    "BSTAR": "0.00026834",
    "MEAN_MOTION_DOT": "0.00001731",
    "MEAN_MOTION_DDOT": "0",
    "FILE": "3899515",
    "TLE_LINE0": "0 SPOT 2",
    "TLE_LINE1": "1 20436U 90005A   23123.14500803  .00001731  00000-0  26834-3 0  9999",
    "TLE_LINE2": "2 20436  98.6648 191.8048 0142671  64.5260 297.0624 14.67986985747587",
    "OBJECT_ID": "1990-005A",
    "OBJECT_NUMBER": "20436",
    "SEMIMAJOR_AXIS": "7045.639",
    "PERIOD": "98.094",
    "APOGEE": "768.025",
    "PERIGEE": "566.983",
    "DECAYED": "0"
  },
  {
    "COMMENT": "GENERATED VIA SPACETRACK.ORG API",
    "ORIGINATOR": "18 SPCS",
    "NORAD_CAT_ID": "20436",
    "OBJECT_NAME": "SPOT 2",
    "OBJECT_TYPE": "PAYLOAD",
    "CLASSIFICATION_TYPE": "U",
    "INTLDES": "90005A",
    "EPOCH": "2023-05-03 03:28:48",
    "EPOCH_MICROSECONDS": "693792",
    "MEAN_MOTION": "14.67986985",
    "ECCENTRICITY": "0.0142671",
    "INCLINATION": "98.6648",
    "RA_OF_ASC_NODE": "191.8048",
    "ARG_OF_PERICENTER": "64.526",
    "MEAN_ANOMALY": "297.0624",
    "EPHEMERIS_TYPE": "0",
    "ELEMENT_SET_NO": "999",
    "REV_AT_EPOCH": "74756",
    "BSTAR": "0.00026834",
    "MEAN_MOTION_DOT": "0.00001731",
    "MEAN_MOTION_DDOT": "0",
    "FILE": "3899966",
    "TLE_LINE0": "0 SPOT 2",
    "TLE_LINE1": "1 20436U 90005A   23123.14500803  .00001731  00000-0  26834-3 0  9999",
    "TLE_LINE2": "2 20436  98.6648 191.8048 0142671  64.5260 297.0624 14.67986985747565",
    "OBJECT_ID": "1990-005A",
    "OBJECT_NUMBER": "20436",
    "SEMIMAJOR_AXIS": "7045.639",
    "PERIOD": "98.094",
    "APOGEE": "768.025",
    "PERIGEE": "566.983",
    "DECAYED": "0"
  },
  {
    "COMMENT": "GENERATED VIA SPACETRACK.ORG API",
    "ORIGINATOR": "18 SPCS",
    "NORAD_CAT_ID": "20436",
    "OBJECT_NAME": "SPOT 2",
    "OBJECT_TYPE": "PAYLOAD",
    "CLASSIFICATION_TYPE": "U",
    "INTLDES": "90005A",
    "EPOCH": "2023-05-03 18:12:10",
    "EPOCH_MICROSECONDS": "52352",
    "MEAN_MOTION": "14.67988805",
    "ECCENTRICITY": "0.0142643",
    "INCLINATION": "98.6648",
    "RA_OF_ASC_NODE": "192.4542",
    "ARG_OF_PERICENTER": "62.6242",
    "MEAN_ANOMALY": "298.9394",
    "EPHEMERIS_TYPE": "0",
    "ELEMENT_SET_NO": "999",
    "REV_AT_EPOCH": "74765",
    "BSTAR": "0.00025966",
    "MEAN_MOTION_DOT": "0.00001672",
    "MEAN_MOTION_DDOT": "0",
    "FILE": "3900281",
    "TLE_LINE0": "0 SPOT 2",
    "TLE_LINE1": "1 20436U 90005A   23123.75844968  .00001672  00000-0  25966-3 0  9998",
    "TLE_LINE2": "2 20436  98.6648 192.4542 0142643  62.6242 298.9394 14.67988805747656",
    "OBJECT_ID": "1990-005A",
    "OBJECT_NUMBER": "20436",
    "SEMIMAJOR_AXIS": "7045.633",
    "PERIOD": "98.093",
    "APOGEE": "767.999",
    "PERIGEE": "566.997",
    "DECAYED": "0"
  },
  {
    "COMMENT": "GENERATED VIA SPACETRACK.ORG API",
    "ORIGINATOR": "18 SPCS",
    "NORAD_CAT_ID": "20436",
    "OBJECT_NAME": "SPOT 2",
    "OBJECT_TYPE": "PAYLOAD",
    "CLASSIFICATION_TYPE": "U",
    "INTLDES": "90005A",
    "EPOCH": "2023-05-04 04:01:04",
    "EPOCH_MICROSECONDS": "198944",
    "MEAN_MOTION": "14.67990176",
    "ECCENTRICITY": "0.0142619",
    "INCLINATION": "98.6648",
    "RA_OF_ASC_NODE": "192.887",
    "ARG_OF_PERICENTER": "61.3579",
    "MEAN_ANOMALY": "300.1882",
    "EPHEMERIS_TYPE": "0",
    "ELEMENT_SET_NO": "999",
    "REV_AT_EPOCH": "74773",
    "BSTAR": "0.00025539",
    "MEAN_MOTION_DOT": "0.00001644",
    "MEAN_MOTION_DDOT": "0",
    "FILE": "3900487",
    "TLE_LINE0": "0 SPOT 2",
    "TLE_LINE1": "1 20436U 90005A   23124.16740971  .00001644  00000-0  25539-3 0  9998",
    "TLE_LINE2": "2 20436  98.6648 192.8870 0142619  61.3579 300.1882 14.67990176747737",
    "OBJECT_ID": "1990-005A",
    "OBJECT_NUMBER": "20436",
    "SEMIMAJOR_AXIS": "7045.629",
    "PERIOD": "98.093",
    "APOGEE": "767.978",
    "PERIGEE": "567.009",
    "DECAYED": "0"
  },
  {
    "COMMENT": "GENERATED VIA SPACETRACK.ORG API",
    "ORIGINATOR": "18 SPCS",
    "NORAD_CAT_ID": "20436",
    "OBJECT_NAME": "SPOT 2",
    "OBJECT_TYPE": "PAYLOAD",
    "CLASSIFICATION_TYPE": "U",
    "INTLDES": "90005A",
    "EPOCH": "2023-05-04 10:33:40",
    "EPOCH_MICROSECONDS": "282848",
    "MEAN_MOTION": "14.6799113",
    "ECCENTRICITY": "0.0142621",
    "INCLINATION": "98.6648",
    "RA_OF_ASC_NODE": "193.1756",
    "ARG_OF_PERICENTER": "60.5083",
    "MEAN_ANOMALY": "301.0259",
    "EPHEMERIS_TYPE": "0",
    "ELEMENT_SET_NO": "999",
    "REV_AT_EPOCH": "74775",
    "BSTAR": "0.00025483",
    "MEAN_MOTION_DOT": "0.0000164",
    "MEAN_MOTION_DDOT": "0",
    "FILE": "3900892",
    "TLE_LINE0": "0 SPOT 2",
    "TLE_LINE1": "1 20436U 90005A   23124.44004957  .00001640  00000-0  25483-3 0  9990",
    "TLE_LINE2": "2 20436  98.6648 193.1756 0142621  60.5083 301.0259 14.67991130747759",
    "OBJECT_ID": "1990-005A",
    "OBJECT_NUMBER": "20436",
    "SEMIMAJOR_AXIS": "7045.625",
    "PERIOD": "98.093",
    "APOGEE": "767.976",
    "PERIGEE": "567.005",
    "DECAYED": "0"
  },
  {
    "COMMENT": "GENERATED VIA SPACETRACK.ORG API",
    "ORIGINATOR": "18 SPCS",
    "NORAD_CAT_ID": "20436",
    "OBJECT_NAME": "SPOT 2",
    "OBJECT_TYPE": "PAYLOAD",
    "CLASSIFICATION_TYPE": "U",
    "INTLDES": "90005A",
    "EPOCH": "2023-05-04 18:44:25",
    "EPOCH_MICROSECONDS": "322496",
    "MEAN_MOTION": "14.67992922",
    "ECCENTRICITY": "0.0142603",
    "INCLINATION": "98.6647",
    "RA_OF_ASC_NODE": "193.5364",
    "ARG_OF_PERICENTER": "59.4525",
    "MEAN_ANOMALY": "302.0663",
    "EPHEMERIS_TYPE": "0",
    "ELEMENT_SET_NO": "999",
    "REV_AT_EPOCH": "74780",
    "BSTAR": "0.00026724",
    "MEAN_MOTION_DOT": "0.00001723",
    "MEAN_MOTION_DDOT": "0",
    "FILE": "3901186",
    "TLE_LINE0": "0 SPOT 2",
    "TLE_LINE1": "1 20436U 90005A   23124.78084864  .00001723  00000-0  26724-3 0  9993",
    "TLE_LINE2": "2 20436  98.6647 193.5364 0142603  59.4525 302.0663 14.67992922747801",
    "OBJECT_ID": "1990-005A",
    "OBJECT_NUMBER": "20436",
    "SEMIMAJOR_AXIS": "7045.620",
    "PERIOD": "98.093",
    "APOGEE": "767.957",
    "PERIGEE": "567.012",
    "DECAYED": "0"
  }
]